[{"type": "relation", "id": 7745707, "tags": {"distance": "30 mi", "name": "Wildwood Trail", "network": "lwn", "operator": "City of Portland", "operator:type": "public", "operator:wikidata": "Q6106", "operator:wikipedia": "en:Portland, Oregon", "route": "hiking", "symbol": "blue diamond", "type": "route"}, "members": [113897248, 113897074, 113897568, 113897600, 113897350, 113897578, 135479074, 135479075, 739476984, 739476983, 739476981, 741577920, 149061059, 149061058, 125433416, 113896971, 135806554, 135806555, 113897589, 113897163, 784369300, 784369299, 105423454, 105423495, 541810344, 105423684]}, {"type": "relation", "id": 0, "tags": {"name": "Northwest Firelane 1 Road", "RLIS:systemname": "Forest Park Trails", "bicycle": "designated", "foot": "designated", "highway": "path", "mtb:scale": "1", "segregated": "no", "surface": "dirt", "access": "yes", "motor_vehicle": "no"}, "members": [113897613, 113897041, 113897501]}, {"type": "relation", "id": 1, "tags": {"RLIS:systemname": "Forest Park Trails", "bicycle": "no", "est_width": "0.9", "highway": "path", "name": "Morak Trail", "surface": "ground"}, "members": [113897517]}, {"type": "relation", "id": 2, "tags": {"RLIS:systemname": "Forest Park Trails", "bicycle": "no", "est_width": "0.9", "foot": "designated", "highway": "path", "name": "Nature Trail", "surface": "ground"}, "members": [113897148, 113897024]}, {"type": "relation", "id": 3, "tags": {"RLIS:systemname": "Forest Park Trails", "bicycle": "no", "est_width": "0.9", "food": "des", "foot": "designated", "highway": "path", "name": "Tye Trail", "surface": "ground"}, "members": [113897345]}, {"type": "relation", "id": 4, "tags": {"RLIS:systemname": "Macleay Park Trails", "bicycle": "no", "est_width": "0.9", "foot": "designated", "highway": "path", "name": "Upper Macleay Trail", "name:etymology": "Donald Macleay", "name:etymology:wikidata": "Q16059794", "name:etymology:wikipedia": "en:Donald Macleay", "surface": "ground"}, "members": [113897560, 113897419]}, {"type": "relation", "id": 5, "tags": {"RLIS:systemname": "Macleay Park Trails", "bicycle": "no", "est_width": "0.9", "foot": "designated", "highway": "path", "name": "Macleay Trail", "name:etymology": "Donald Macleay", "name:etymology:wikidata": "Q16059794", "name:etymology:wikipedia": "en:Donald Macleay", "surface": "ground"}, "members": [113897066]}, {"type": "relation", "id": 6, "tags": {"RLIS:systemname": "Macleay Park Trails", "bicycle": "designated", "est_width": "0.9", "foot": "yes", "highway": "path", "mtb": "designated", "name": "Old Cornell", "surface": "paved"}, "members": [113897084]}, {"type": "relation", "id": 7, "tags": {"RLIS:systemname": "Macleay Park Trails", "bicycle": "no", "est_width": "0.9", "highway": "footway", "horse": "no", "name": "Cumberland Trail", "surface": "ground", "foot": "designated"}, "members": [114741021, 114741004, 114741012, 113897098, 113897491, 114741000]}, {"type": "relation", "id": 8, "tags": {"RLIS:systemname": "Macleay Park Trails", "bicycle": "no", "est_width": "1.0", "foot": "designated", "highway": "path", "name": "Site Trail (Forest Park)", "operator": "City of Portland", "operator:type": "public", "operator:wikidata": "Q6106", "operator:wikipedia": "en:Portland, Oregon", "surface": "ground"}, "members": [239681975]}, {"type": "relation", "id": 9, "tags": {"RLIS:systemname": "Macleay Park Trails", "bicycle": "no", "est_width": "0.9", "foot": "designated", "highway": "path", "horse": "no", "name": "Tunnel Trail", "surface": "ground"}, "members": [113897156]}, {"type": "relation", "id": 10, "tags": {"bicycle": "no", "est_width": "0.9", "foot": "designated", "highway": "path", "surface": "ground"}, "members": [113896991]}, {"type": "relation", "id": 11, "tags": {"highway": "path", "surface": "ground"}, "members": [722669095]}, {"type": "relation", "id": 12, "tags": {"RLIS:systemname": "Macleay Park Trails", "bicycle": "no", "foot": "designated", "highway": "path", "horse": "no", "name": "Lower Macleay Trail", "name:etymology": "Donald Macleay", "name:etymology:wikidata": "Q16059794", "name:etymology:wikipedia": "en:Donald Macleay"}, "members": [113897032, 903228526, 903228527, 113897579, 113897515]}, {"type": "relation", "id": 13, "tags": {"RLIS:systemname": "Holman Property Trails", "bicycle": "designated", "foot": "designated", "highway": "path", "motor_vehicle": "no", "mtb:description": "One Way. Up hill only", "mtb:scale": "1", "name": "Holman Lane", "name:etymology": "Frederick Van Voorhies Holman", "name:etymology:wikidata": "Q5498909", "name:etymology:wikipedia": "en:Frederick Van Voorhies Holman", "old_name": "Mountain View Road", "source:old_name": "https://oregonnews.uoregon.edu/lccn/sn83045782/1915-09-26/ed-1/seq-52.pdf", "surface": "dirt"}, "members": [113897048]}, {"type": "relation", "id": 14, "tags": {"RLIS:systemname": "Holman Property Trails", "bicycle": "no", "est_width": "0.9", "highway": "footway", "surface": "ground"}, "members": [114741026]}, {"type": "relation", "id": 15, "tags": {"RLIS:systemname": "Holman Property Trails", "bicycle": "no", "est_width": "0.9", "highway": "footway", "surface": "ground"}, "members": [113897462]}, {"type": "relation", "id": 16, "tags": {"RLIS:systemname": "Forest Park Trails", "bicycle": "no", "est_width": "0.9", "foot": "designated", "highway": "path", "horse": "no", "name": "Birch Trail", "surface": "ground"}, "members": [113897078]}, {"type": "relation", "id": 17, "tags": {"highway": "path", "informal": "yes"}, "members": [997781673]}, {"type": "relation", "id": 18, "tags": {"highway": "path", "informal": "yes"}, "members": [997781681]}, {"type": "relation", "id": 19, "tags": {"RLIS:systemname": "Forest Park Trails", "bicycle": "no", "est_width": "0.9", "foot": "designated", "highway": "path", "horse": "no", "name": "Wild Cherry Trail", "surface": "ground"}, "members": [113897431, 113897445]}, {"type": "relation", "id": 20, "tags": {"RLIS:systemname": "Forest Park Trails", "bicycle": "no", "est_width": "0.9", "foot": "designated", "highway": "path", "horse": "no", "name": "Aspen Trail", "surface": "ground"}, "members": [113897141]}, {"type": "relation", "id": 21, "tags": {"RLIS:systemname": "Forest Park Trails", "bicycle": "no", "highway": "path", "name": "Water Tank Access Road", "surface": "pebblestone"}, "members": [113897063, 113897621, 113897210]}, {"type": "relation", "id": 22, "tags": {"RLIS:systemname": "Forest Park Trails", "bicycle": "no", "est_width": "0.9", "highway": "path", "name": "Water Tank Access Road", "surface": "ground"}, "members": [113896968]}, {"type": "relation", "id": 23, "tags": {"RLIS:systemname": "Forest Park Trails", "bicycle": "no", "est_width": "0.9", "foot": "designated", "highway": "path", "horse": "no", "name": "Dogwood Trail", "surface": "ground"}, "members": [113896978, 113897536, 113897543, 113897557]}, {"type": "relation", "id": 24, "tags": {"RLIS:systemname": "Forest Park Trails", "bicycle": "no", "est_width": "0.9", "foot": "designated", "highway": "path", "name": "Keil Trail", "surface": "ground"}, "members": [113897309]}, {"type": "relation", "id": 25, "tags": {"RLIS:systemname": "Forest Park Trails", "bicycle": "no", "est_width": "0.9", "foot": "designated", "highway": "path", "name": "Alder Trail", "surface": "ground"}, "members": [447342732, 113897279]}, {"type": "relation", "id": 26, "tags": {"RLIS:systemname": "Forest Park Trails", "bicycle": "no", "foot": "designated", "highway": "path", "motor_vehicle": "no", "name": "Northwest Firelane 2 Road", "surface": "ground"}, "members": [113897363, 113897328]}, {"type": "relation", "id": 27, "tags": {"RLIS:systemname": "Forest Park Trails", "bicycle": "no", "est_width": "0.9", "foot": "designated", "highway": "path", "name": "Chestnut Trail", "surface": "ground"}, "members": [113897499]}, {"type": "relation", "id": 28, "tags": {"RLIS:systemname": "Forest Park Trails", "bicycle": "no", "est_width": "0.9", "foot": "designated", "highway": "path", "name": "Maple Trail"}, "members": [113897455, 113897020, 113897130, 113897358, 113897548, 113897577, 113897629]}, {"type": "relation", "id": 29, "tags": {"RLIS:systemname": "Forest Park Trails", "bicycle": "no", "est_width": "0.9", "foot": "designated", "highway": "path", "name": "Tye Trail", "surface": "ground"}, "members": [113897105]}, {"type": "relation", "id": 30, "tags": {"RLIS:systemname": "Forest Park Trails", "bicycle": "designated", "est_width": "0.9", "foot": "designated", "highway": "path", "motor_vehicle": "no", "mtb:scale": "1", "name": "Northwest Firelane 3 Road", "sidewalk": "no", "source": "http://www.portlandonline.com/parks/finder/index.cfm?action=ViewFile&PolPdfsID=81&/Forest%20Park%20Mountain%20Biking%20Map.pdf", "surface": "dirt"}, "members": [113897007, 113897531]}, {"type": "relation", "id": 31, "tags": {"RLIS:systemname": "Forest Park Trails", "bicycle": "no", "est_width": "2.3", "foot": "designated", "highway": "path", "name": "Cleator Trail", "surface": "ground"}, "members": [113897398]}, {"type": "relation", "id": 32, "tags": {"RLIS:systemname": "Westside Trail", "bicycle": "designated", "est_width": "3.7", "foot": "designated", "highway": "path", "motor_vehicle": "no", "mtb:scale": "0", "name": "Northwest Saltzman Road (Westside Trail)", "segregated": "no", "surface": "gravel", "mtb": "yes", "source": "http://www.portlandonline.com/parks/finder/index.cfm?action=ViewFile&PolPdfsID=81&/Forest%20Park%20Mountain%20Biking%20Map.pdf"}, "members": [113897035, 113897226, 113897451, 899651014, 899651016, 899651017, 899651015]}, {"type": "relation", "id": 33, "tags": {"RLIS:systemname": "Forest Park Trails", "bicycle": "no", "est_width": "0.9", "foot": "designated", "highway": "path", "name": "Koenig Trail", "surface": "ground"}, "members": [113897436]}, {"type": "relation", "id": 34, "tags": {"RLIS:systemname": "Forest Park Trails", "bicycle": "no", "est_width": "0.9", "foot": "designated", "highway": "path", "motor_vehicle": "no", "name": "Firelane 4", "sidewalk": "no", "surface": "ground"}, "members": [113897422, 113897165, 113897513]}, {"type": "relation", "id": 35, "tags": {"RLIS:systemname": "Forest Park Trails", "bicycle": "no", "est_width": "0.9", "foot": "designated", "highway": "path", "name": "Firelane 4", "surface": "ground"}, "members": [113896976]}, {"type": "relation", "id": 36, "tags": {"RLIS:systemname": "Forest Park Trails", "bicycle": "designated", "foot": "designated", "highway": "path", "motor_vehicle": "no", "name": "Northwest Firelane 5 Road", "segregated": "no", "surface": "dirt"}, "members": [113897554, 113897315]}, {"type": "relation", "id": 37, "tags": {"RLIS:systemname": "Forest Park Trails", "bicycle": "no", "foot": "designated", "highway": "path", "motor_vehicle": "no", "name": "Firelane 5 Offshoot", "surface": "ground"}, "members": [113897071, 113897332]}, {"type": "relation", "id": 38, "tags": {"bicycle": "no", "est_width": "0.9", "highway": "footway", "surface": "ground"}, "members": [113897534]}, {"type": "relation", "id": 39, "tags": {"RLIS:systemname": "Forest Park Trails", "bicycle": "no", "est_width": "0.9", "foot": "designated", "highway": "path", "name": "Trillium Trail", "surface": "ground"}, "members": [113897623]}, {"type": "relation", "id": 40, "tags": {"RLIS:systemname": "Forest Park Trails", "bicycle": "no", "foot": "designated", "highway": "path", "motor_vehicle": "no", "name": "Northwest Firelane 7 Road", "est_width": "2.3"}, "members": [113897009, 113897337]}, {"type": "relation", "id": 41, "tags": {"RLIS:systemname": "Forest Park Trails", "bicycle": "no", "foot": "designated", "highway": "path", "motor_vehicle": "no", "name": "Gas Line Road", "surface": "ground", "est_width": "0.9"}, "members": [113896995, 113897607, 113897432]}, {"type": "relation", "id": 42, "tags": {"RLIS:systemname": "Forest Park Trails", "bicycle": "no", "foot": "designated", "highway": "path", "motor_vehicle": "no", "name": "Oil Line Road", "surface": "ground", "est_width": "0.9"}, "members": [113897261, 113897418]}, {"type": "relation", "id": 43, "tags": {"RLIS:systemname": "Forest Park Trails", "bicycle": "no", "foot": "designated", "highway": "path", "name": "Firelane 7A", "surface": "ground"}, "members": [860270555, 113897306]}, {"type": "relation", "id": 44, "tags": {"RLIS:systemname": "Forest Park Trails", "bicycle": "no", "est_width": "0.9", "foot": "designated", "highway": "footway", "name": "Ridge Trail", "surface": "ground"}, "members": [113897159, 113897394, 113897457]}, {"type": "relation", "id": 45, "tags": {"RLIS:systemname": "Ridge Trail", "bicycle": "no", "highway": "footway", "name": "Ridge Trail", "surface": "ground"}, "members": [113897107, 153743681]}, {"type": "relation", "id": 46, "tags": {"RLIS:systemname": "Forest Park Trails", "bicycle": "no", "est_width": "0.9", "foot": "designated", "highway": "path", "name": "Wiregate Trail", "surface": "ground"}, "members": [113897527]}, {"type": "relation", "id": 47, "tags": {"RLIS:systemname": "Forest Park Trails", "bicycle": "no", "est_width": "0.9", "foot": "designated", "highway": "path", "name": "Quarry Trail", "surface": "ground"}, "members": [113897341]}, {"type": "relation", "id": 48, "tags": {"RLIS:systemname": "Forest Park Trails", "bicycle": "no", "est_width": "0.9", "foot": "designated", "highway": "path", "name": "Hardesty Trail"}, "members": [113897353]}, {"type": "relation", "id": 49, "tags": {"RLIS:systemname": "Forest Park Trails", "bicycle": "designated", "est_width": "4.6+", "foot": "designated", "highway": "path", "motor_vehicle": "no", "mtb:scale": "0", "name": "Northwest Springville Road"}, "members": [113897217, 113897290]}, {"type": "relation", "id": 50, "tags": {"RLIS:systemname": "Forest Park Trails", "bicycle": "no", "est_width": "0.9", "foot": "designated", "highway": "path", "name": "Old Firelane 7", "surface": "ground"}, "members": [113897013]}, {"type": "relation", "id": 51, "tags": {"RLIS:systemname": "Forest Park Trails", "bicycle": "no", "est_width": "0.9", "foot": "designated", "highway": "path", "name": "Water Line Trail", "surface": "ground"}, "members": [113896999]}, {"type": "relation", "id": 52, "tags": {"RLIS:systemname": "Forest Park Trails", "bicycle": "no", "foot": "designated", "highway": "path", "name": "Tolinda Trail", "surface": "ground", "alt_name": "Camp Tolinda Trail", "sidewalk": "no"}, "members": [105423506, 105423650, 105425087]}, {"type": "relation", "id": 53, "tags": {"highway": "footway", "lit": "no", "name": "No Name Trail", "surface": "ground"}, "members": [449538957]}, {"type": "relation", "id": 54, "tags": {"RLIS:systemname": "Forest Park Trails", "bicycle": "no", "est_width": "0.9", "foot": "designated", "highway": "path", "surface": "ground"}, "members": [113897583]}, {"type": "relation", "id": 55, "tags": {"RLIS:systemname": "Forest Park Trails", "bicycle": "no", "est_width": "0.9", "foot": "designated", "highway": "path", "name": "Cannon Trail", "surface": "ground"}, "members": [125697262]}, {"type": "relation", "id": 56, "tags": {"RLIS:systemname": "Forest Park Trails", "bicycle": "no", "est_width": "0.9", "foot": "designated", "highway": "path", "name": "Cannon Trail", "surface": "ground"}, "members": [113897461]}, {"type": "relation", "id": 57, "tags": {"RLIS:systemname": "Forest Park Trails", "bicycle": "no", "foot": "designated", "highway": "path", "name": "Firelane 8", "surface": "ground"}, "members": [113897620]}, {"type": "relation", "id": 58, "tags": {"RLIS:systemname": "Forest Park Trails", "bicycle": "no", "foot": "designated", "highway": "path", "motor_vehicle": "no", "name": "Northwest Firelane 9 Road", "surface": "ground", "alt_name": "Firelane 9"}, "members": [113897410, 115043110]}, {"type": "relation", "id": 59, "tags": {"RLIS:systemname": "Forest Park Trails", "bicycle": "designated", "est_width": "4.6+", "foot": "designated", "highway": "path", "motor_vehicle": "no", "mtb:scale": "1", "name": "Northwest Firelane 10 Road", "surface": "dirt", "mtb": "yes"}, "members": [113897524, 113897062, 113897077, 113897253, 113897430]}, {"type": "relation", "id": 60, "tags": {"RLIS:systemname": "Forest Park Trails", "access": "yes", "bicycle": "designated", "est_width": "4.6+", "foot": "designated", "highway": "path", "motor_vehicle": "no", "mtb:scale": "1", "name": "Keyser Trail", "surface": "dirt"}, "members": [113897415]}, {"type": "relation", "id": 61, "tags": {"RLIS:systemname": "Linnton Park Trails", "bicycle": "no", "est_width": "0.9", "highway": "footway", "name": "Linnton Park Trail", "surface": "ground"}, "members": [113897485]}, {"type": "relation", "id": 62, "tags": {"RLIS:systemname": "Forest Park Trails", "bicycle": "no", "est_width": "2.3", "highway": "path", "name": "Northwest Dunbar - Firelane 15 Connector Road"}, "members": [113897079, 135622660]}, {"type": "relation", "id": 63, "tags": {"RLIS:systemname": "Forest Park Trails", "bicycle": "designated", "foot": "designated", "highway": "path", "motor_vehicle": "no", "mtb:scale": "1", "name": "Northwest Firelane 15 Road", "surface": "dirt"}, "members": [113897522]}, {"type": "relation", "id": 64, "tags": {"RLIS:systemname": "Forest Park Trails", "bicycle": "no", "est_width": "0.9", "foot": "designated", "highway": "path", "surface": "unpaved"}, "members": [113897203]}, {"type": "relation", "id": 65, "tags": {"RLIS:systemname": "Forest Park Trails", "bicycle": "no", "est_width": "2.3", "foot": "yes", "highway": "path", "name": "Northwest Kielhorn Meadow Access Road", "surface": "unpaved"}, "members": [193185099, 874899533]}, {"type": "relation", "id": 66, "tags": {"RLIS:systemname": "Forest Park Trails", "bicycle": "designated", "foot": "designated", "highway": "path", "motor_vehicle": "no", "mtb:scale": "1", "name": "Northwest Firelane 12 Road", "sidewalk": "no", "surface": "dirt"}, "members": [113897556]}, {"type": "relation", "id": 67, "tags": {"RLIS:systemname": "Forest Park Trails", "bicycle": "designated", "est_width": "2.3", "foot": "designated", "highway": "path", "motor_vehicle": "no", "mtb:description": "S2 due to grade only", "name": "Northwest BPA Road", "surface": "gravel"}, "members": [115685913, 113897136, 113897473]}, {"type": "relation", "id": 68, "tags": {"RLIS:systemname": "Forest Park Trails", "bicycle": "designated", "foot": "designated", "highway": "path", "motor_vehicle": "no", "name": "Northwest Newton Road", "mtb": "yes"}, "members": [105425047, 105423498, 105423534, 105423555, 114858362]}, {"type": "relation", "id": 69, "tags": {"RLIS:systemname": "Forest Park Trails", "bicycle": "no", "est_width": "0.9", "foot": "designated", "highway": "path", "surface": "ground"}, "members": [113897155]}, {"type": "relation", "id": 70, "tags": {"RLIS:systemname": "Linnton Park Trails", "bicycle": "no", "est_width": "0.9", "highway": "footway", "name": "Linnton Park Trail", "surface": "ground"}, "members": [113897603]}, {"type": "relation", "id": 71, "tags": {"RLIS:systemname": "Forest Park Trails", "bicycle": "no", "est_width": "2.3", "foot": "designated", "highway": "path", "name": "Water Tank Access Track", "surface": "ground"}, "members": [113897365]}, {"type": "relation", "id": 72, "tags": {"RLIS:systemname": "Forest Park Trails", "bicycle": "no", "est_width": "2.3", "foot": "designated", "highway": "path", "motor_vehicle": "no", "name": "Northwest Firelane 13 Road", "surface": "ground"}, "members": [113897288]}, {"type": "relation", "id": 73, "tags": {"RLIS:systemname": "Forest Park Trails", "bicycle": "no", "est_width": "2.3", "foot": "designated", "highway": "path", "motor_vehicle": "no", "name": "Northwest Firelane 13a Road", "surface": "ground"}, "members": [113897542]}, {"type": "relation", "id": 74, "tags": {"RLIS:systemname": "Forest Park Trails", "est_width": "2.3", "foot": "designated", "highway": "path", "motor_vehicle": "no", "name": "BPA Offshoot", "surface": "ground"}, "members": [113897109]}, {"type": "relation", "id": 75, "tags": {"RLIS:systemname": "Forest Park Trails", "est_width": "2.3", "foot": "designated", "highway": "path", "motor_vehicle": "no", "name": "BPA Offshoot", "surface": "ground"}, "members": [113897585]}, {"type": "relation", "id": 76, "tags": {"RLIS:systemname": "Forest Park Trails", "est_width": "2.3", "foot": "designated", "highway": "path", "motor_vehicle": "no", "name": "BPA Offshoot", "surface": "ground"}, "members": [113897459]}, {"type": "relation", "id": 77, "tags": {"RLIS:systemname": "Forest Park Trails", "est_width": "2.3", "foot": "designated", "highway": "path", "motor_vehicle": "no", "name": "BPA Offshoot", "surface": "ground"}, "members": [113897571]}, {"type": "relation", "id": 78, "tags": {"RLIS:systemname": "Forest Park Trails", "est_width": "2.3", "foot": "designated", "highway": "path", "motor_vehicle": "no", "name": "BPA Offshoot", "surface": "ground"}, "members": [113897334]}, {"type": "relation", "id": 79, "tags": {"bicycle": "designated", "est_width": "4.6+", "foot": "designated", "highway": "path", "motor_vehicle": "no", "mtb:scale": "0", "name": "Northwest Leif Erikson Drive", "name:etymology": "Leif Erikson", "name:etymology:wikidata": "Q42838", "name:etymology:wikipedia": "en:Leif Erikson", "old_name": "Hillside Drive", "segregated": "no", "source:old_name": "https://oregonnews.uoregon.edu/lccn/sn83045782/1915-09-26/ed-1/seq-52.pdf", "emergency": "yes", "mtb": "yes", "horse": "yes", "source": "http://www.portlandonline.com/parks/finder/index.cfm?action=ViewFile&PolPdfsID=81&/Forest%20Park%20Mountain%20Biking%20Map.pdf"}, "members": [997778172, 105407026, 105407029, 105407044, 105407045, 105407046, 105411367, 115043111, 115685915, 860270554, 860270556, 860270557, 860270558, 860270559, 860270560, 860270561, 997778173]}, {"type": "relation", "id": 80, "tags": {"RLIS:systemname": "Forest Park Trails", "bicycle": "no", "est_width": "0.9", "foot": "designated", "highway": "path", "name": "Firelane 5 Offshoot", "surface": "ground"}, "members": [113897089]}, {"type": "relation", "id": 81, "tags": {"RLIS:systemname": "Forest Park Trails", "bicycle": "no", "est_width": "3.7", "foot": "designated", "highway": "path", "motor_vehicle": "no", "name": "Firelane 5 Offshoot", "surface": "ground"}, "members": [113897424]}, {"type": "relation", "id": 82, "tags": {"RLIS:systemname": "Forest Park Trails", "bicycle": "no", "est_width": "0.9", "foot": "designated", "highway": "path", "name": "Koenig Trail", "surface": "ground"}, "members": [113897295]}, {"type": "relation", "id": 83, "tags": {"RLIS:systemname": "Forest Park Trails", "bicycle": "no", "est_width": "0.9", "foot": "designated", "highway": "path", "name": "Hardesty Trail", "surface": "pebblestone"}, "members": [113897475]}, {"type": "relation", "id": 84, "tags": {"RLIS:systemname": "Forest Park Trails", "access": "yes", "bicycle": "designated", "foot": "designated", "highway": "path", "motor_vehicle": "no", "mtb:scale": "1", "name": "Northwest Firelane 1 Road", "surface": "dirt"}, "members": [113897058, 113897247]}]